[{"OBJECT_NAME":"BEIDOU-3 M26 (C48)","OBJECT_ID":"2023-207B","EPOCH":"2026-04-05T01:41:22.572096","MEAN_MOTION":1.86229801,"ECCENTRICITY":0.00054833,"INCLINATION":55.6923,"RA_OF_ASC_NODE":64.7546,"ARG_OF_PERICENTER":298.1703,"MEAN_ANOMALY":61.7471,"EPHEMERIS_TYPE":0,"CLASSIFICATION_TYPE":"U","NORAD_CAT_ID":58655,"ELEMENT_SET_NO":999,"REV_AT_EPOCH":1546,"BSTAR":0,"MEAN_MOTION_DOT":-4.1e-7,"MEAN_MOTION_DDOT":0},{"OBJECT_NAME":"BEIDOU-3 M25 (C47)","OBJECT_ID":"2024-168B","EPOCH":"2026-04-05T03:56:10.165920","MEAN_MOTION":1.86230376,"ECCENTRICITY":0.0003717,"INCLINATION":54.5387,"RA_OF_ASC_NODE":304.7797,"ARG_OF_PERICENTER":321.4927,"MEAN_ANOMALY":218.2899,"EPHEMERIS_TYPE":0,"CLASSIFICATION_TYPE":"U","NORAD_CAT_ID":61186,"ELEMENT_SET_NO":999,"REV_AT_EPOCH":1042,"BSTAR":0,"MEAN_MOTION_DOT":-6.0e-7,"MEAN_MOTION_DDOT":0},{"OBJECT_NAME":"BEIDOU-3 M27 (C49)","OBJECT_ID":"2024-168C","EPOCH":"2026-04-03T21:16:28.636320","MEAN_MOTION":1.86230456,"ECCENTRICITY":0.00028765,"INCLINATION":54.5346,"RA_OF_ASC_NODE":304.8072,"ARG_OF_PERICENTER":31.7599,"MEAN_ANOMALY":146.4859,"EPHEMERIS_TYPE":0,"CLASSIFICATION_TYPE":"U","NORAD_CAT_ID":61187,"ELEMENT_SET_NO":999,"REV_AT_EPOCH":787,"BSTAR":0,"MEAN_MOTION_DOT":-6.4e-7,"MEAN_MOTION_DDOT":0}]
