BEIDOU-3 M26            
1 58655U 23207B   26095.07040014 -.00000041  00000+0  00000+0 0  9995
2 58655  55.6923  64.7546 0005483 298.1703  61.7471  1.86229801 15462
BEIDOU-3 M25            
1 61186U 24168B   26095.16400655 -.00000060  00000+0  00000+0 0  9997
2 61186  54.5387 304.7797 0003717 321.4927 218.2899  1.86230376 10421
BEIDOU-3 M27            
1 61187U 24168C   26093.88644255 -.00000064  00000+0  00000+0 0  9995
2 61187  54.5346 304.8072 0002876  31.7599 146.4859  1.86230456  7877
